STARLINK-1752
1 16338C 20062Q   21326.13368220 -.00010518  00000-0 -70467-3 0  3261
2 16338  53.0522 218.1311 0001829  66.4568  41.2487 15.06410162    18
